[{"OBJECT_NAME":"DONGPO 10","OBJECT_ID":"2022-167H","EPOCH":"2026-03-09T22:44:56.137344","MEAN_MOTION":15.322785,"ECCENTRICITY":0.00061655,"INCLINATION":97.685,"RA_OF_ASC_NODE":235.0962,"ARG_OF_PERICENTER":106.9526,"MEAN_ANOMALY":253.2392,"EPHEMERIS_TYPE":0,"CLASSIFICATION_TYPE":"U","NORAD_CAT_ID":54689,"ELEMENT_SET_NO":999,"REV_AT_EPOCH":18015,"BSTAR":0.00049390523,"MEAN_MOTION_DOT":0.00015333,"MEAN_MOTION_DDOT":0},{"OBJECT_NAME":"STARLINK-34237","OBJECT_ID":"2025-113AA","EPOCH":"2026-03-09T11:23:47.980896","MEAN_MOTION":15.30196237,"ECCENTRICITY":0.00011886,"INCLINATION":53.1588,"RA_OF_ASC_NODE":92.021,"ARG_OF_PERICENTER":74.795,"MEAN_ANOMALY":285.3182,"EPHEMERIS_TYPE":0,"CLASSIFICATION_TYPE":"U","NORAD_CAT_ID":64194,"ELEMENT_SET_NO":999,"REV_AT_EPOCH":4499,"BSTAR":0.0010943383,"MEAN_MOTION_DOT":0.00032189,"MEAN_MOTION_DDOT":0}]
